{"type": "FeatureCollection", "features": [ {"type": "Feature", "properties": {"norad_id": 37216, "name": "COSMO-SKYMED 4", "group": "resource", "lat": 44.621103054065316, "lon": 150.2775259843015, "alt_km": 617.902682181917, "timestamp": "2025-12-02T15:49:06.839668+00:00", "meta": {"OBJECT_NAME": "COSMO-SKYMED 4", "OBJECT_ID": "2010-060A", "EPOCH": "2025-12-02T07:30:51.533280", "MEAN_MOTION": 14.82165811, "ECCENTRICITY": 0.00014823, "INCLINATION": 97.8807, "RA_OF_ASC_NODE": 157.7933, "ARG_OF_PERICENTER": 84.8653, "MEAN_ANOMALY": 275.2729, "EPHEMERIS_TYPE": 0, "CLASSIFICATION_TYPE": "U", "NORAD_CAT_ID": 37216, "ELEMENT_SET_NO": 999, "REV_AT_EPOCH": 81540, "BSTAR": 0.00010755494, "MEAN_MOTION_DOT": 8.04e-06, "MEAN_MOTION_DDOT": 0}, "tle": {"line1": "1 37216U 10060A   25336.31309645  .00000804  00000+0  10755-3 0  9998", "line2": "2 37216  97.8807 157.7933 0001482  84.8653 275.2729 14.82165811815403"}}, "geometry": {"type": "Point", "coordinates": [150.2775259843015, 44.621103054065316]}}, {"type": "Feature", "properties": {"norad_id": 37387, "name": "RESOURCESAT-2", "group": "resource", "lat": 43.56544852164107, "lon": 31.793660446013448, "alt_km": 811.8025381026409, "timestamp": "2025-12-02T15:49:06.839678+00:00", "meta": {"OBJECT_NAME": "RESOURCESAT-2", "OBJECT_ID": "2011-015A", "EPOCH": "2025-12-02T05:28:34.542912", "MEAN_MOTION": 14.21590333, "ECCENTRICITY": 0.00068148, "INCLINATION": 98.7891, "RA_OF_ASC_NODE": 39.8266, "ARG_OF_PERICENTER": 69.4888, "MEAN_ANOMALY": 290.702, "EPHEMERIS_TYPE": 0, "CLASSIFICATION_TYPE": "U", "NORAD_CAT_ID": 37387, "ELEMENT_SET_NO": 999, "REV_AT_EPOCH": 75819, "BSTAR": 0.00011814957, "MEAN_MOTION_DOT": 2.15e-06, "MEAN_MOTION_DDOT": 0}, "tle": {"line1": "1 37387U 11015A   25336.22817758  .00000215  00000+0  11815-3 0  9991", "line2": "2 37387  98.7891  39.8266 0006814  69.4888 290.7020 14.21590333758199"}}, "geometry": {"type": "Point", "coordinates": [31.793660446013448, 43.56544852164107]}}, {"type": "Feature", "properties": {"norad_id": 37781, "name": "HAIYANG-2A", "group": "resource", "lat": -21.317978775273744, "lon": 154.0675283161347, "alt_km": 973.4821823639095, "timestamp": "2025-12-02T15:49:06.839688+00:00", "meta": {"OBJECT_NAME": "HAIYANG-2A", "OBJECT_ID": "2011-043A", "EPOCH": "2025-12-02T07:52:42.191040", "MEAN_MOTION": 13.78834037, "ECCENTRICITY": 0.0001642, "INCLINATION": 99.3377, "RA_OF_ASC_NODE": 337.4232, "ARG_OF_PERICENTER": 98.217, "MEAN_ANOMALY": 261.9168, "EPHEMERIS_TYPE": 0, "CLASSIFICATION_TYPE": "U", "NORAD_CAT_ID": 37781, "ELEMENT_SET_NO": 999, "REV_AT_EPOCH": 71955, "BSTAR": 5.472129e-05, "MEAN_MOTION_DOT": 1.2e-07, "MEAN_MOTION_DDOT": 0}, "tle": {"line1": "1 37781U 11043A   25336.32826610  .00000012  00000+0  54721-4 0  9997", "line2": "2 37781  99.3377 337.4232 0001642  98.2170 261.9168 13.78834037719554"}}, "geometry": {"type": "Point", "coordinates": [154.0675283161347, -21.317978775273744]}}, {"type": "Feature", "properties": {"norad_id": 37791, "name": "RASAT", "group": "resource", "lat": -28.641106088688023, "lon": 70.50821544782322, "alt_km": 682.3530027473635, "timestamp": "2025-12-02T15:49:06.839699+00:00", "meta": {"OBJECT_NAME": "RASAT", "OBJECT_ID": "2011-044D", "EPOCH": "2025-12-02T06:30:57.969792", "MEAN_MOTION": 14.67885273, "ECCENTRICITY": 0.00219596, "INCLINATION": 98.0657, "RA_OF_ASC_NODE": 65.6846, "ARG_OF_PERICENTER": 96.5075, "MEAN_ANOMALY": 347.8424, "EPHEMERIS_TYPE": 0, "CLASSIFICATION_TYPE": "U", "NORAD_CAT_ID": 37791, "ELEMENT_SET_NO": 999, "REV_AT_EPOCH": 76429, "BSTAR": 0.00016785198, "MEAN_MOTION_DOT": 9.14e-06, "MEAN_MOTION_DDOT": 0}, "tle": {"line1": "1 37791U 11044D   25336.27150428  .00000914  00000+0  16785-3 0  9998", "line2": "2 37791  98.0657  65.6846 0021959  96.5075 347.8424 14.67885273764298"}}, "geometry": {"type": "Point", "coordinates": [70.50821544782322, -28.641106088688023]}}, {"type": "Feature", "properties": {"norad_id": 37841, "name": "SRMSAT", "group": "resource", "lat": -12.568327298074758, "lon": 26.842510994570635, "alt_km": 845.2921335876727, "timestamp": "2025-12-02T15:49:06.839709+00:00", "meta": {"OBJECT_NAME": "SRMSAT", "OBJECT_ID": "2011-058D", "EPOCH": "2025-12-01T21:57:27.777312", "MEAN_MOTION": 14.11505404, "ECCENTRICITY": 0.00117535, "INCLINATION": 19.9698, "RA_OF_ASC_NODE": 173.4687, "ARG_OF_PERICENTER": 193.5378, "MEAN_ANOMALY": 196.2106, "EPHEMERIS_TYPE": 0, "CLASSIFICATION_TYPE": "U", "NORAD_CAT_ID": 37841, "ELEMENT_SET_NO": 999, "REV_AT_EPOCH": 72991, "BSTAR": 0.00010220784, "MEAN_MOTION_DOT": 4.53e-06, "MEAN_MOTION_DDOT": 0}, "tle": {"line1": "1 37841U 11058D   25335.91490483  .00000453  00000+0  10221-3 0  9994", "line2": "2 37841  19.9698 173.4687 0011753 193.5378 196.2106 14.11505404729914"}}, "geometry": {"type": "Point", "coordinates": [26.842510994570635, -12.568327298074758]}}, {"type": "Feature", "properties": {"norad_id": 38012, "name": "PLEIADES 1A", "group": "resource", "lat": 72.88507531465417, "lon": -102.55600864271943, "alt_km": 689.9505877832535, "timestamp": "2025-12-02T15:49:06.839719+00:00", "meta": {"OBJECT_NAME": "PLEIADES 1A", "OBJECT_ID": "2011-076F", "EPOCH": "2025-12-02T07:30:34.064928", "MEAN_MOTION": 14.58544862, "ECCENTRICITY": 0.00014247, "INCLINATION": 98.1835, "RA_OF_ASC_NODE": 49.2419, "ARG_OF_PERICENTER": 81.9907, "MEAN_ANOMALY": 6.2521, "EPHEMERIS_TYPE": 0, "CLASSIFICATION_TYPE": "U", "NORAD_CAT_ID": 38012, "ELEMENT_SET_NO": 999, "REV_AT_EPOCH": 74329, "BSTAR": 0.00013720129, "MEAN_MOTION_DOT": 5.92e-06, "MEAN_MOTION_DDOT": 0}, "tle": {"line1": "1 38012U 11076F   25336.31289427  .00000592  00000+0  13720-3 0  9995", "line2": "2 38012  98.1835  49.2419 0001424  81.9907   6.2521 14.58544862743292"}}, "geometry": {"type": "Point", "coordinates": [-102.55600864271943, 72.88507531465417]}}, {"type": "Feature", "properties": {"norad_id": 38038, "name": "ZIYUAN 1-02C (ZY 1-02C)", "group": "resource", "lat": 36.770292223147834, "lon": 36.4917683770491, "alt_km": 765.52584599483, "timestamp": "2025-12-02T15:49:06.839730+00:00", "meta": {"OBJECT_NAME": "ZIYUAN 1-02C (ZY 1-02C)", "OBJECT_ID": "2011-079A", "EPOCH": "2025-12-02T07:42:26.018208", "MEAN_MOTION": 14.37992924, "ECCENTRICITY": 0.00067202, "INCLINATION": 98.4347, "RA_OF_ASC_NODE": 42.5263, "ARG_OF_PERICENTER": 167.3928, "MEAN_ANOMALY": 281.3991, "EPHEMERIS_TYPE": 0, "CLASSIFICATION_TYPE": "U", "NORAD_CAT_ID": 38038, "ELEMENT_SET_NO": 999, "REV_AT_EPOCH": 73091, "BSTAR": 0.00024023822, "MEAN_MOTION_DOT": 6.83e-06, "MEAN_MOTION_DDOT": 0}, "tle": {"line1": "1 38038U 11079A   25336.32113447  .00000683  00000+0  24024-3 0  9995", "line2": "2 38038  98.4347  42.5263 0006720 167.3928 281.3991 14.37992924730915"}}, "geometry": {"type": "Point", "coordinates": [36.4917683770491, 36.770292223147834]}}, {"type": "Feature", "properties": {"norad_id": 38046, "name": "ZIYUAN 3-1 (ZY 3-1)", "group": "resource", "lat": 2.5086516033973156, "lon": -136.82901426492435, "alt_km": 372.5232535201467, "timestamp": "2025-12-02T15:49:06.839740+00:00", "meta": {"OBJECT_NAME": "ZIYUAN 3-1 (ZY 3-1)", "OBJECT_ID": "2012-001A", "EPOCH": "2025-12-02T07:23:56.823648", "MEAN_MOTION": 15.6659663, "ECCENTRICITY": 0.00022026, "INCLINATION": 97.1785, "RA_OF_ASC_NODE": 42.4964, "ARG_OF_PERICENTER": 36.2827, "MEAN_ANOMALY": 323.8583, "EPHEMERIS_TYPE": 0, "CLASSIFICATION_TYPE": "U", "NORAD_CAT_ID": 38046, "ELEMENT_SET_NO": 999, "REV_AT_EPOCH": 77333, "BSTAR": 0.00066987318, "MEAN_MOTION_DOT": 0.00070345, "MEAN_MOTION_DDOT": 0}, "tle": {"line1": "1 38046U 12001A   25336.30829657  .00070345  00000+0  66987-3 0  9991", "line2": "2 38046  97.1785  42.4964 0002202  36.2827 323.8583 15.66596630773335"}}, "geometry": {"type": "Point", "coordinates": [-136.82901426492435, 2.5086516033973156]}}, {"type": "Feature", "properties": {"norad_id": 38338, "name": "ARIRANG-3 (KOMPSAT-3)", "group": "resource", "lat": -66.75910417767594, "lon": 91.22348498596735, "alt_km": 697.2498562941464, "timestamp": "2025-12-02T15:49:06.839750+00:00", "meta": {"OBJECT_NAME": "ARIRANG-3 (KOMPSAT-3)", "OBJECT_ID": "2012-025B", "EPOCH": "2025-12-02T06:28:18.375168", "MEAN_MOTION": 14.61689392, "ECCENTRICITY": 0.00060983, "INCLINATION": 98.3306, "RA_OF_ASC_NODE": 290.7812, "ARG_OF_PERICENTER": 11.5824, "MEAN_ANOMALY": 348.5516, "EPHEMERIS_TYPE": 0, "CLASSIFICATION_TYPE": "U", "NORAD_CAT_ID": 38338, "ELEMENT_SET_NO": 999, "REV_AT_EPOCH": 72257, "BSTAR": 0.00017434472, "MEAN_MOTION_DOT": 8.2e-06, "MEAN_MOTION_DDOT": 0}, "tle": {"line1": "1 38338U 12025B   25336.26965712  .00000820  00000+0  17434-3 0  9993", "line2": "2 38338  98.3306 290.7812 0006098  11.5824 348.5516 14.61689392722573"}}, "geometry": {"type": "Point", "coordinates": [91.22348498596735, -66.75910417767594]}}, {"type": "Feature", "properties": {"norad_id": 38709, "name": "EXACTVIEW-1 (ADS-1B)", "group": "resource", "lat": 40.13219007657443, "lon": -87.51591058649376, "alt_km": 809.195135463815, "timestamp": "2025-12-02T15:49:06.839760+00:00", "meta": {"OBJECT_NAME": "EXACTVIEW-1 (ADS-1B)", "OBJECT_ID": "2012-039C", "EPOCH": "2025-12-02T06:44:31.074144", "MEAN_MOTION": 14.24900835, "ECCENTRICITY": 0.00111966, "INCLINATION": 98.9635, "RA_OF_ASC_NODE": 84.4517, "ARG_OF_PERICENTER": 24.0465, "MEAN_ANOMALY": 336.1234, "EPHEMERIS_TYPE": 0, "CLASSIFICATION_TYPE": "U", "NORAD_CAT_ID": 38709, "ELEMENT_SET_NO": 999, "REV_AT_EPOCH": 69466, "BSTAR": 0.00010714132, "MEAN_MOTION_DOT": 2.04e-06, "MEAN_MOTION_DDOT": 0}, "tle": {"line1": "1 38709U 12039C   25336.28091521  .00000204  00000+0  10714-3 0  9990", "line2": "2 38709  98.9635  84.4517 0011196  24.0465 336.1234 14.24900835694666"}}, "geometry": {"type": "Point", "coordinates": [-87.51591058649376, 40.13219007657443]}}]}